[{"OBJECT_NAME":"UTMN 2 (RS27S)","OBJECT_ID":"2023-091AP","EPOCH":"2026-03-09T23:09:07.917408","MEAN_MOTION":15.29495965,"ECCENTRICITY":0.00097379,"INCLINATION":97.5194,"RA_OF_ASC_NODE":134.949,"ARG_OF_PERICENTER":76.0788,"MEAN_ANOMALY":284.1534,"EPHEMERIS_TYPE":0,"CLASSIFICATION_TYPE":"U","NORAD_CAT_ID":57203,"ELEMENT_SET_NO":999,"REV_AT_EPOCH":14936,"BSTAR":0.00056135701,"MEAN_MOTION_DOT":0.00016013,"MEAN_MOTION_DDOT":0},{"OBJECT_NAME":"STARLINK-31471","OBJECT_ID":"2024-076E","EPOCH":"2026-03-09T03:53:44.273472","MEAN_MOTION":15.27566798,"ECCENTRICITY":0.00010168,"INCLINATION":43.0065,"RA_OF_ASC_NODE":11.8378,"ARG_OF_PERICENTER":285.9523,"MEAN_ANOMALY":74.1216,"EPHEMERIS_TYPE":0,"CLASSIFICATION_TYPE":"U","NORAD_CAT_ID":59568,"ELEMENT_SET_NO":999,"REV_AT_EPOCH":10633,"BSTAR":-5.4536425e-5,"MEAN_MOTION_DOT":-1.762e-5,"MEAN_MOTION_DDOT":0}]
